IRIDIUM 106             
1 41917U 17003A   24254.36460401  .00000185  00000+0  58960-4 0  9999
2 41917  86.4033 357.9933 0001879 102.0892 258.0515 14.34214755400785
IRIDIUM 103             
1 41918U 17003B   24254.21237750  .00001315  00000+0  46245-3 0  9991
2 41918  86.4031 357.9586 0001589  84.6906 275.4471 14.34215652400799
IRIDIUM 109             
1 41919U 17003C   24254.21872961  .00000153  00000+0  47443-4 0  9992
2 41919  86.4031 358.0044 0002394  86.2862 273.8607 14.34215864400771
IRIDIUM 102             
1 41920U 17003D   24253.83817315  .00000211  00000+0  68127-4 0  9990
2 41920  86.4031 358.1007 0002225  96.2046 263.9403 14.34216668400789
IRIDIUM 105             
1 41921U 17003E   24254.15769571  .00001103  00000+0  38679-3 0  9996
2 41921  86.4004 326.4204 0002009  94.0510 266.0915 14.34216464402686
IRIDIUM 104             
1 41922U 17003F   24253.99039146  .00001425  00000+0  50161-3 0  9993
2 41922  86.4032 358.0696 0002320  83.1842 276.9618 14.34222130400794
IRIDIUM 114             
1 41923U 17003G   24253.85720075  .00000284  00000+0  94453-4 0  9992
2 41923  86.4032 358.1109 0001846  99.3098 260.8307 14.34217963400750
IRIDIUM 108             
1 41924U 17003H   24253.74594530  .00001221  00000+0  42872-3 0  9995
2 41924  86.3999 326.5118 0002094  97.2716 262.8717 14.34225514402593
